[
    {
        "CCSDS_OMM_VERS": "3.0",
        "COMMENT": "GENERATED VIA SPACE-TRACK.ORG API",
        "CREATION_DATE": "2025-05-03T17:28:03",
        "ORIGINATOR": "18 SPCS",
        "OBJECT_NAME": "BEIDOU 3M27",
        "OBJECT_ID": "2024-168C",
        "CENTER_NAME": "EARTH",
        "REF_FRAME": "TEME",
        "TIME_SYSTEM": "UTC",
        "MEAN_ELEMENT_THEORY": "SGP4",
        "EPOCH": "2025-05-03T08:06:51.928128",
        "MEAN_MOTION": "1.86230164",
        "ECCENTRICITY": "0.00023330",
        "INCLINATION": "54.8278",
        "RA_OF_ASC_NODE": "316.4296",
        "ARG_OF_PERICENTER": "29.7606",
        "MEAN_ANOMALY": "181.0898",
        "EPHEMERIS_TYPE": "0",
        "CLASSIFICATION_TYPE": "U",
        "NORAD_CAT_ID": "61187",
        "ELEMENT_SET_NO": "999",
        "REV_AT_EPOCH": "162",
        "BSTAR": "0.00000000000000",
        "MEAN_MOTION_DOT": "-0.00000068",
        "MEAN_MOTION_DDOT": "0.0000000000000",
        "SEMIMAJOR_AXIS": "27906.272",
        "PERIOD": "773.237",
        "APOAPSIS": "21534.648",
        "PERIAPSIS": "21521.627",
        "OBJECT_TYPE": "PAYLOAD",
        "RCS_SIZE": "LARGE",
        "COUNTRY_CODE": "PRC",
        "LAUNCH_DATE": "2024-09-19",
        "SITE": "XSC",
        "DECAY_DATE": null,
        "FILE": "4717971",
        "GP_ID": "286773099",
        "TLE_LINE0": "0 BEIDOU 3M27",
        "TLE_LINE1": "1 61187U 24168C   25123.33810102 -.00000068  00000-0  00000-0 0  9990",
        "TLE_LINE2": "2 61187  54.8278 316.4296 0002333  29.7606 181.0898  1.86230164  1626"
    }
]